0 NIMBUS 2 DEB
1 39294U 66040BC  13288.14578304  .00000003  00000-0  10000-3 0    18
2 39294 100.4400 000.2830 0050944 008.6375 351.5855 13.34247270 40348
0 NIMBUS 2 DEB
1 39294U 66040BC  13291.14517529  .00000003  00000-0  10000-3 0    25
2 39294 100.4412 003.3362 0049967 003.3570 356.8936 13.34256258 40745
0 NIMBUS 2 DEB
1 39294U 66040BC  13292.64484265  .00000003  00000-0  10000-3 0    32
2 39294 100.4455 004.8663 0049726 357.8985 002.2420 13.34259620 40940
0 NIMBUS 2 DEB
1 39294U 66040BC  13293.16972221  .00000003  00000-0  10000-3 0    45
2 39294 100.4439 005.3974 0049508 354.4868 005.6219 13.34263316 41013
0 NIMBUS 2 DEB
1 39294U 66040BC  13294.14449979  .00000003  00000-0  10000-3 0    54
2 39294 100.4468 006.4005 0052562 352.2137 007.8186 13.34268248 41141
0 NIMBUS 2 DEB
1 39294U 66040BC  13296.16906025  .00000003  00000-0  10000-3 0    69
2 39294 100.4379 008.4591 0051333 347.6213 012.4206 13.34274947 41410
